{
  "links" : {
    "next" : "https://api.nasa.gov/neo/rest/v1/feed?start_date=1999-02-16&end_date=1999-02-16&detailed=true&api_key=t0TVs3DtDT2H8Oy2Zy8m2eVrNsAVKAexjcZXUckd",
    "prev" : "https://api.nasa.gov/neo/rest/v1/feed?start_date=1999-02-14&end_date=1999-02-14&detailed=true&api_key=t0TVs3DtDT2H8Oy2Zy8m2eVrNsAVKAexjcZXUckd",
    "self" : "https://api.nasa.gov/neo/rest/v1/feed?start_date=1999-02-15&end_date=1999-02-15&detailed=true&api_key=t0TVs3DtDT2H8Oy2Zy8m2eVrNsAVKAexjcZXUckd"
  },
  "element_count" : 5,
  "near_earth_objects" : {
    "1999-02-15" : [ {
      "links" : {
        "self" : "https://api.nasa.gov/neo/rest/v1/neo/3114028?api_key=t0TVs3DtDT2H8Oy2Zy8m2eVrNsAVKAexjcZXUckd"
      },
      "neo_reference_id" : "3114028",
      "name" : "(2002 CN15)",
      "nasa_jpl_url" : "http://ssd.jpl.nasa.gov/sbdb.cgi?sstr=3114028",
      "absolute_magnitude_h" : 20.8,
      "estimated_diameter" : {
        "kilometers" : {
          "estimated_diameter_min" : 0.1838886721,
          "estimated_diameter_max" : 0.411187571
        },
        "meters" : {
          "estimated_diameter_min" : 183.8886720703,
          "estimated_diameter_max" : 411.1875710413
        },
        "miles" : {
          "estimated_diameter_min" : 0.1142630881,
          "estimated_diameter_max" : 0.2555000322
        },
        "feet" : {
          "estimated_diameter_min" : 603.309310875,
          "estimated_diameter_max" : 1349.040630575
        }
      },
      "is_potentially_hazardous_asteroid" : false,
      "close_approach_data" : [ {
        "close_approach_date" : "1999-02-15",
        "epoch_date_close_approach" : 919065600000,
        "relative_velocity" : {
          "kilometers_per_second" : "28.5994902549",
          "kilometers_per_hour" : "102958.1649177646",
          "miles_per_hour" : "63974.1997512632"
        },
        "miss_distance" : {
          "astronomical" : "0.1764953322",
          "lunar" : "68.6566848755",
          "kilometers" : "26403326",
          "miles" : "16406266"
        },
        "orbiting_body" : "Earth"
      } ],
      "orbital_data" : {
        "orbit_id" : "21",
        "orbit_determination_date" : "2017-04-06 09:15:27",
        "orbit_uncertainty" : "7",
        "minimum_orbit_intersection" : ".0614894",
        "jupiter_tisserand_invariant" : "4.651",
        "epoch_osculation" : "2458000.5",
        "eccentricity" : ".6957766782250748",
        "semi_major_axis" : "1.324005920263665",
        "inclination" : "6.117154569275458",
        "ascending_node_longitude" : "298.5724079678039",
        "orbital_period" : "556.4591876917876",
        "perihelion_distance" : ".4027934791122789",
        "perihelion_argument" : "332.137579442059",
        "aphelion_distance" : "2.245218361415051",
        "perihelion_time" : "2457948.981030213691",
        "mean_anomaly" : "33.33007978537337",
        "mean_motion" : ".6469477150575818",
        "equinox" : "J2000"
      }
    }, {
      "links" : {
        "self" : "https://api.nasa.gov/neo/rest/v1/neo/3455137?api_key=t0TVs3DtDT2H8Oy2Zy8m2eVrNsAVKAexjcZXUckd"
      },
      "neo_reference_id" : "3455137",
      "name" : "(2009 FU23)",
      "nasa_jpl_url" : "http://ssd.jpl.nasa.gov/sbdb.cgi?sstr=3455137",
      "absolute_magnitude_h" : 20.0,
      "estimated_diameter" : {
        "kilometers" : {
          "estimated_diameter_min" : 0.2658,
          "estimated_diameter_max" : 0.5943468684
        },
        "meters" : {
          "estimated_diameter_min" : 265.8,
          "estimated_diameter_max" : 594.3468684194
        },
        "miles" : {
          "estimated_diameter_min" : 0.1651604118,
          "estimated_diameter_max" : 0.369309908
        },
        "feet" : {
          "estimated_diameter_min" : 872.047272,
          "estimated_diameter_max" : 1949.9569797852
        }
      },
      "is_potentially_hazardous_asteroid" : true,
      "close_approach_data" : [ {
        "close_approach_date" : "1999-02-15",
        "epoch_date_close_approach" : 919065600000,
        "relative_velocity" : {
          "kilometers_per_second" : "11.0270742104",
          "kilometers_per_hour" : "39697.4671573259",
          "miles_per_hour" : "24666.4623011729"
        },
        "miss_distance" : {
          "astronomical" : "0.2634048646",
          "lunar" : "102.4645004272",
          "kilometers" : "39404808",
          "miles" : "24485014"
        },
        "orbiting_body" : "Earth"
      } ],
      "orbital_data" : {
        "orbit_id" : "28",
        "orbit_determination_date" : "2017-04-06 09:00:54",
        "orbit_uncertainty" : "2",
        "minimum_orbit_intersection" : ".0331774",
        "jupiter_tisserand_invariant" : "6.962",
        "epoch_osculation" : "2458000.5",
        "eccentricity" : ".2820310927535006",
        "semi_major_axis" : ".8372024786502689",
        "inclination" : "13.89965502865119",
        "ascending_node_longitude" : "57.80375669977673",
        "orbital_period" : "279.7977289150466",
        "perihelion_distance" : ".6010853487405943",
        "perihelion_argument" : "315.1638598580114",
        "aphelion_distance" : "1.073319608559943",
        "perihelion_time" : "2457864.450722515800",
        "mean_anomaly" : "175.0469529693104",
        "mean_motion" : "1.286643752956639",
        "equinox" : "J2000"
      }
    }, {
      "links" : {
        "self" : "https://api.nasa.gov/neo/rest/v1/neo/3647024?api_key=t0TVs3DtDT2H8Oy2Zy8m2eVrNsAVKAexjcZXUckd"
      },
      "neo_reference_id" : "3647024",
      "name" : "(2013 RB6)",
      "nasa_jpl_url" : "http://ssd.jpl.nasa.gov/sbdb.cgi?sstr=3647024",
      "absolute_magnitude_h" : 21.7,
      "estimated_diameter" : {
        "kilometers" : {
          "estimated_diameter_min" : 0.1214940408,
          "estimated_diameter_max" : 0.2716689341
        },
        "meters" : {
          "estimated_diameter_min" : 121.4940407996,
          "estimated_diameter_max" : 271.6689340891
        },
        "miles" : {
          "estimated_diameter_min" : 0.0754928736,
          "estimated_diameter_max" : 0.1688071972
        },
        "feet" : {
          "estimated_diameter_min" : 398.6025088171,
          "estimated_diameter_max" : 891.3023057169
        }
      },
      "is_potentially_hazardous_asteroid" : false,
      "close_approach_data" : [ {
        "close_approach_date" : "1999-02-15",
        "epoch_date_close_approach" : 919065600000,
        "relative_velocity" : {
          "kilometers_per_second" : "12.8158541045",
          "kilometers_per_hour" : "46137.0747760524",
          "miles_per_hour" : "28667.7840462643"
        },
        "miss_distance" : {
          "astronomical" : "0.3664307821",
          "lunar" : "142.5415802002",
          "kilometers" : "54817268",
          "miles" : "34061872"
        },
        "orbiting_body" : "Earth"
      } ],
      "orbital_data" : {
        "orbit_id" : "17",
        "orbit_determination_date" : "2017-04-06 08:44:55",
        "orbit_uncertainty" : "6",
        "minimum_orbit_intersection" : ".230872",
        "jupiter_tisserand_invariant" : "5.101",
        "epoch_osculation" : "2458000.5",
        "eccentricity" : ".0201913882596672",
        "semi_major_axis" : "1.235451783648761",
        "inclination" : "24.18879791782311",
        "ascending_node_longitude" : "343.3888854005723",
        "orbital_period" : "501.5764391871655",
        "perihelion_distance" : "1.210506297009011",
        "perihelion_argument" : "99.17623268975784",
        "aphelion_distance" : "1.260397270288512",
        "perihelion_time" : "2458177.097081887537",
        "mean_anomaly" : "233.2497292286291",
        "mean_motion" : ".7177370623376995",
        "equinox" : "J2000"
      }
    } ]
  }
}